{
    "week": 293,
    "satellites": [
        {
            "Name": "COSMOS 2545 (760)",
            "Line1": "1 45358U 20018A   24325.31965927 -.00000055  00000+0  00000+0 0  9993",
            "Line2": "2 45358  64.6761 332.5175 0012252 248.6603 111.2357  2.13102555 36434",
            "SatelliteNumber": "45358",
            "Classification": "U",
            "LaunchYear": "20",
            "LaunchNumber": "018",
            "PieceOfLaunch": "A",
            "EpochYear": "24",
            "EpochDay": 325.31965927,
            "FirstDerivativeMeanMotion": -5.5e-07,
            "SecondDerivativeMeanMotion": "00000+0",
            "BSTAR": "00000+0",
            "SetNumber": "999",
            "Inclination": 64.6761,
            "RAAN": 332.5175,
            "Eccentricity": 0.0012252,
            "ArgumentOfPerigee": 248.6603,
            "MeanAnomaly": 111.2357,
            "MeanMotion": 2.13102555,
            "RevolutionNumber": "3643"
        },
        {
            "Name": "COSMOS 2547 (705K)",
            "Line1": "1 46805U 20075A   24325.03696081  .00000010  00000+0  00000+0 0  9995",
            "Line2": "2 46805  64.5960 211.6545 0006441 235.7248 124.2928  2.13102779 31672",
            "SatelliteNumber": "46805",
            "Classification": "U",
            "LaunchYear": "20",
            "LaunchNumber": "075",
            "PieceOfLaunch": "A",
            "EpochYear": "24",
            "EpochDay": 325.03696081,
            "FirstDerivativeMeanMotion": 1e-07,
            "SecondDerivativeMeanMotion": "00000+0",
            "BSTAR": "00000+0",
            "SetNumber": "999",
            "Inclination": 64.596,
            "RAAN": 211.6545,
            "Eccentricity": 0.0006441,
            "ArgumentOfPerigee": 235.7248,
            "MeanAnomaly": 124.2928,
            "MeanMotion": 2.13102779,
            "RevolutionNumber": "3167"
        },
        {
            "Name": "COSMOS 2557 (706K)",
            "Line1": "1 52984U 22075A   24325.20288812 -.00000058  00000+0  00000+0 0  9993",
            "Line2": "2 52984  64.6069 334.6372 0014083 276.5901  83.2791  2.13102036 18484",
            "SatelliteNumber": "52984",
            "Classification": "U",
            "LaunchYear": "22",
            "LaunchNumber": "075",
            "PieceOfLaunch": "A",
            "EpochYear": "24",
            "EpochDay": 325.20288812,
            "FirstDerivativeMeanMotion": -5.8e-07,
            "SecondDerivativeMeanMotion": "00000+0",
            "BSTAR": "00000+0",
            "SetNumber": "999",
            "Inclination": 64.6069,
            "RAAN": 334.6372,
            "Eccentricity": 0.0014083,
            "ArgumentOfPerigee": 276.5901,
            "MeanAnomaly": 83.2791,
            "MeanMotion": 2.13102036,
            "RevolutionNumber": "1848"
        },
        {
            "Name": "COSMOS 2559 (707K)",
            "Line1": "1 54031U 22130A   24325.14628766 -.00000058  00000+0  00000+0 0  9999",
            "Line2": "2 54031  64.5789 334.7514 0008317 232.2656 127.6888  2.13101359 16457",
            "SatelliteNumber": "54031",
            "Classification": "U",
            "LaunchYear": "22",
            "LaunchNumber": "130",
            "PieceOfLaunch": "A",
            "EpochYear": "24",
            "EpochDay": 325.14628766,
            "FirstDerivativeMeanMotion": -5.8e-07,
            "SecondDerivativeMeanMotion": "00000+0",
            "BSTAR": "00000+0",
            "SetNumber": "999",
            "Inclination": 64.5789,
            "RAAN": 334.7514,
            "Eccentricity": 0.0008317,
            "ArgumentOfPerigee": 232.2656,
            "MeanAnomaly": 127.6888,
            "MeanMotion": 2.13101359,
            "RevolutionNumber": "1645"
        },
        {
            "Name": "COSMOS 2564 (761)",
            "Line1": "1 54377U 22161A   24325.33652661  .00000007  00000+0  00000+0 0  9991",
            "Line2": "2 54377  64.7373 211.7773 0008527 212.2317 147.7938  2.13102110 15406",
            "SatelliteNumber": "54377",
            "Classification": "U",
            "LaunchYear": "22",
            "LaunchNumber": "161",
            "PieceOfLaunch": "A",
            "EpochYear": "24",
            "EpochDay": 325.33652661,
            "FirstDerivativeMeanMotion": 7e-08,
            "SecondDerivativeMeanMotion": "00000+0",
            "BSTAR": "00000+0",
            "SetNumber": "999",
            "Inclination": 64.7373,
            "RAAN": 211.7773,
            "Eccentricity": 0.0008527,
            "ArgumentOfPerigee": 212.2317,
            "MeanAnomaly": 147.7938,
            "MeanMotion": 2.1310211,
            "RevolutionNumber": "1540"
        },
        {
            "Name": "COSMOS 2569 (703K)",
            "Line1": "1 57517U 23114A   24324.41403532  .00000012  00000+0  00000+0 0  9994",
            "Line2": "2 57517  64.9906  92.0532 0009282 289.8522  70.0288  2.13104050 10012",
            "SatelliteNumber": "57517",
            "Classification": "U",
            "LaunchYear": "23",
            "LaunchNumber": "114",
            "PieceOfLaunch": "A",
            "EpochYear": "24",
            "EpochDay": 324.41403532,
            "FirstDerivativeMeanMotion": 1.2e-07,
            "SecondDerivativeMeanMotion": "00000+0",
            "BSTAR": "00000+0",
            "SetNumber": "999",
            "Inclination": 64.9906,
            "RAAN": 92.0532,
            "Eccentricity": 0.0009282,
            "ArgumentOfPerigee": 289.8522,
            "MeanAnomaly": 70.0288,
            "MeanMotion": 2.1310405,
            "RevolutionNumber": "1001"
        }
    ]
}